{
  "type": "FeatureCollection",
  "features": [
    {
      "type": "Feature",
      "properties": {
        "norad_id": 66174,
        "name": "HTV-X1",
        "group": "stations",
        "lat": -21.218295698757622,
        "lon": -35.095853345375495,
        "alt_km": 419.3780880487202,
        "timestamp": "2025-12-15T20:48:52.637840+00:00",
        "meta_object_name": "HTV-X1",
        "meta_object_id": "2025-241A",
        "meta_epoch": "2025-12-14T20:42:23.988960",
        "meta_mean_motion": 15.4959536,
        "meta_eccentricity": 0.00032074,
        "meta_inclination": 51.6306,
        "meta_ra_of_asc_node": 131.9662,
        "meta_arg_of_pericenter": 249.8734,
        "meta_mean_anomaly": 110.1909,
        "meta_ephemeris_type": 0,
        "meta_classification_type": "U",
        "meta_norad_cat_id": 66174,
        "meta_element_set_no": 999,
        "meta_rev_at_epoch": 51,
        "meta_bstar": 0.00013765617,
        "meta_mean_motion_dot": 7.299e-05,
        "meta_mean_motion_ddot": 0,
        "tle_line1": "1 66174U 25241A   25348.86277765  .00007299  00000+0  13766-3 0  9990",
        "tle_line2": "2 66174  51.6306 131.9662 0003207 249.8734 110.1909 15.49595360   518"
      },
      "geometry": {
        "type": "Point",
        "coordinates": [
          -35.095853345375495,
          -21.218295698757622
        ]
      }
    },
    {
      "type": "Feature",
      "properties": {
        "norad_id": 66515,
        "name": "SZ-21 MODULE",
        "group": "stations",
        "lat": 16.640827062789448,
        "lon": 16.73739075756119,
        "alt_km": 378.2370951768644,
        "timestamp": "2025-12-15T20:48:52.637852+00:00",
        "meta_object_name": "SZ-21 MODULE",
        "meta_object_id": "2025-246C",
        "meta_epoch": "2025-12-14T06:21:31.494240",
        "meta_mean_motion": 15.62581213,
        "meta_eccentricity": 0.00062526,
        "meta_inclination": 41.4775,
        "meta_ra_of_asc_node": 6.7415,
        "meta_arg_of_pericenter": 268.458,
        "meta_mean_anomaly": 91.5544,
        "meta_ephemeris_type": 0,
        "meta_classification_type": "U",
        "meta_norad_cat_id": 66515,
        "meta_element_set_no": 999,
        "meta_rev_at_epoch": 468,
        "meta_bstar": 0.00032565972,
        "meta_mean_motion_dot": 0.0002972,
        "meta_mean_motion_ddot": 0,
        "tle_line1": "1 66515U 25246C   25348.26494785  .00029720  00000+0  32566-3 0  9993",
        "tle_line2": "2 66515  41.4775   6.7415 0006252 268.4580  91.5544 15.62581213  4684"
      },
      "geometry": {
        "type": "Point",
        "coordinates": [
          16.73739075756119,
          16.640827062789448
        ]
      }
    },
    {
      "type": "Feature",
      "properties": {
        "norad_id": 66645,
        "name": "SHENZHOU-22",
        "group": "stations",
        "lat": 40.64650891481323,
        "lon": 74.16141841718678,
        "alt_km": 378.0342276317433,
        "timestamp": "2025-12-15T20:48:52.637865+00:00",
        "meta_object_name": "SHENZHOU-22",
        "meta_object_id": "2025-272A",
        "meta_epoch": "2025-12-14T18:20:35.966688",
        "meta_mean_motion": 15.59276671,
        "meta_eccentricity": 0.00079692,
        "meta_inclination": 41.4686,
        "meta_ra_of_asc_node": 4.4163,
        "meta_arg_of_pericenter": 47.9044,
        "meta_mean_anomaly": 312.2471,
        "meta_ephemeris_type": 0,
        "meta_classification_type": "U",
        "meta_norad_cat_id": 66645,
        "meta_element_set_no": 999,
        "meta_rev_at_epoch": 26357,
        "meta_bstar": 0.0002758625,
        "meta_mean_motion_dot": 0.00022075,
        "meta_mean_motion_ddot": 0,
        "tle_line1": "1 66645U 25272A   25348.76430517  .00022075  00000+0  27586-3 0  9996",
        "tle_line2": "2 66645  41.4686   4.4163 0007969  47.9044 312.2471 15.59276671263577"
      },
      "geometry": {
        "type": "Point",
        "coordinates": [
          74.16141841718678,
          40.64650891481323
        ]
      }
    },
    {
      "type": "Feature",
      "properties": {
        "norad_id": 66664,
        "name": "SOYUZ-MS 28",
        "group": "stations",
        "lat": -21.218297673872577,
        "lon": -35.09585145523901,
        "alt_km": 419.3780881412049,
        "timestamp": "2025-12-15T20:48:52.637881+00:00",
        "meta_object_name": "SOYUZ-MS 28",
        "meta_object_id": "2025-275A",
        "meta_epoch": "2025-12-14T20:42:23.988960",
        "meta_mean_motion": 15.4959536,
        "meta_eccentricity": 0.00032074,
        "meta_inclination": 51.6306,
        "meta_ra_of_asc_node": 131.9662,
        "meta_arg_of_pericenter": 249.8734,
        "meta_mean_anomaly": 110.1909,
        "meta_ephemeris_type": 0,
        "meta_classification_type": "U",
        "meta_norad_cat_id": 66664,
        "meta_element_set_no": 999,
        "meta_rev_at_epoch": 128,
        "meta_bstar": 0.00013765617,
        "meta_mean_motion_dot": 7.299e-05,
        "meta_mean_motion_ddot": 0,
        "tle_line1": "1 66664U 25275A   25348.86277765  .00007299  00000+0  13766-3 0  9991",
        "tle_line2": "2 66664  51.6306 131.9662 0003207 249.8734 110.1909 15.49595360  1287"
      },
      "geometry": {
        "type": "Point",
        "coordinates": [
          -35.09585145523901,
          -21.218297673872577
        ]
      }
    },
    {
      "type": "Feature",
      "properties": {
        "norad_id": 66906,
        "name": "1998-067XS",
        "group": "stations",
        "lat": -47.13844033930799,
        "lon": 5.52435542519685,
        "alt_km": 416.9993514963671,
        "timestamp": "2025-12-15T20:48:52.637901+00:00",
        "meta_object_name": "1998-067XS",
        "meta_object_id": "1998-067XS",
        "meta_epoch": "2025-12-14T03:31:53.110272",
        "meta_mean_motion": 15.5066238,
        "meta_eccentricity": 0.00034792,
        "meta_inclination": 51.6304,
        "meta_ra_of_asc_node": 135.4381,
        "meta_arg_of_pericenter": 209.6903,
        "meta_mean_anomaly": 150.3889,
        "meta_ephemeris_type": 0,
        "meta_classification_type": "U",
        "meta_norad_cat_id": 66906,
        "meta_element_set_no": 999,
        "meta_rev_at_epoch": 183,
        "meta_bstar": 0.00050586866,
        "meta_mean_motion_dot": 0.0002921,
        "meta_mean_motion_ddot": 0,
        "tle_line1": "1 66906U 98067XS  25348.14714248  .00029210  00000+0  50587-3 0  9991",
        "tle_line2": "2 66906  51.6304 135.4381 0003479 209.6903 150.3889 15.50662380  1837"
      },
      "geometry": {
        "type": "Point",
        "coordinates": [
          5.52435542519685,
          -47.13844033930799
        ]
      }
    },
    {
      "type": "Feature",
      "properties": {
        "norad_id": 66907,
        "name": "1998-067XT",
        "group": "stations",
        "lat": -51.25502589863461,
        "lon": 45.96255865027064,
        "alt_km": 413.60101408527316,
        "timestamp": "2025-12-15T20:48:52.637914+00:00",
        "meta_object_name": "1998-067XT",
        "meta_object_id": "1998-067XT",
        "meta_epoch": "2025-12-14T20:26:51.623232",
        "meta_mean_motion": 15.5174474,
        "meta_eccentricity": 0.0004185,
        "meta_inclination": 51.6299,
        "meta_ra_of_asc_node": 131.8946,
        "meta_arg_of_pericenter": 238.563,
        "meta_mean_anomaly": 121.4951,
        "meta_ephemeris_type": 0,
        "meta_classification_type": "U",
        "meta_norad_cat_id": 66907,
        "meta_element_set_no": 999,
        "meta_rev_at_epoch": 194,
        "meta_bstar": 0.00073206152,
        "meta_mean_motion_dot": 0.00044251,
        "meta_mean_motion_ddot": 0,
        "tle_line1": "1 66907U 98067XT  25348.85198638  .00044251  00000+0  73206-3 0  9994",
        "tle_line2": "2 66907  51.6299 131.8946 0004185 238.5630 121.4951 15.51744740  1944"
      },
      "geometry": {
        "type": "Point",
        "coordinates": [
          45.96255865027064,
          -51.25502589863461
        ]
      }
    },
    {
      "type": "Feature",
      "properties": {
        "norad_id": 66908,
        "name": "1998-067XU",
        "group": "stations",
        "lat": -50.80498178234781,
        "lon": 50.515509371849944,
        "alt_km": 413.2529559302111,
        "timestamp": "2025-12-15T20:48:52.637924+00:00",
        "meta_object_name": "1998-067XU",
        "meta_object_id": "1998-067XU",
        "meta_epoch": "2025-12-14T18:53:29.082624",
        "meta_mean_motion": 15.5183473,
        "meta_eccentricity": 0.00042823,
        "meta_inclination": 51.6294,
        "meta_ra_of_asc_node": 132.2114,
        "meta_arg_of_pericenter": 238.4154,
        "meta_mean_anomaly": 121.6418,
        "meta_ephemeris_type": 0,
        "meta_classification_type": "U",
        "meta_norad_cat_id": 66908,
        "meta_element_set_no": 999,
        "meta_rev_at_epoch": 193,
        "meta_bstar": 0.00094476318,
        "meta_mean_motion_dot": 0.00057527,
        "meta_mean_motion_ddot": 0,
        "tle_line1": "1 66908U 98067XU  25348.78714216  .00057527  00000+0  94476-3 0  9995",
        "tle_line2": "2 66908  51.6294 132.2114 0004282 238.4154 121.6418 15.51834730  1938"
      },
      "geometry": {
        "type": "Point",
        "coordinates": [
          50.515509371849944,
          -50.80498178234781
        ]
      }
    }
  ]
}